1 29155U 06018A   12257.32783412 -.00000262  00000-0  10000-3 0  2194
2 29155 000.0695 147.6082 0003166 348.0618 260.5167 01.00270777 23135